{"type": "FeatureCollection", "features": [ {"type": "Feature", "properties": {"norad_id": 41785, "name": "ALSAT 1B", "group": "resource", "lat": -19.129325920315694, "lon": -175.69948523008154, "alt_km": 663.4313906775287, "timestamp": "2025-12-21T14:40:47.568170+00:00", "meta": {"OBJECT_NAME": "ALSAT 1B", "OBJECT_ID": "2016-059C", "EPOCH": "2025-12-21T07:15:12.538944", "MEAN_MOTION": 14.72083897, "ECCENTRICITY": 0.00108044, "INCLINATION": 97.7805, "RA_OF_ASC_NODE": 6.7227, "ARG_OF_PERICENTER": 79.4528, "MEAN_ANOMALY": 280.7897, "EPHEMERIS_TYPE": 0, "CLASSIFICATION_TYPE": "U", "NORAD_CAT_ID": 41785, "ELEMENT_SET_NO": 999, "REV_AT_EPOCH": 49440, "BSTAR": 5.9582079e-05, "MEAN_MOTION_DOT": 3.28e-06, "MEAN_MOTION_DDOT": 0}, "tle": {"line1": "1 41785U 16059C   25355.30222846  .00000328  00000+0  59582-4 0  9998", "line2": "2 41785  97.7805   6.7227 0010804  79.4528 280.7897 14.72083897494406"}}, "geometry": {"type": "Point", "coordinates": [-175.69948523008154, -19.129325920315694]}}, {"type": "Feature", "properties": {"norad_id": 41787, "name": "PATHFINDER 1", "group": "resource", "lat": 52.7316204551176, "lon": -171.6298459051578, "alt_km": 658.2551068093135, "timestamp": "2025-12-21T14:40:47.568180+00:00", "meta": {"OBJECT_NAME": "PATHFINDER 1", "OBJECT_ID": "2016-059E", "EPOCH": "2025-12-20T21:44:31.538112", "MEAN_MOTION": 14.67334172, "ECCENTRICITY": 0.0029819, "INCLINATION": 97.8136, "RA_OF_ASC_NODE": 357.3006, "ARG_OF_PERICENTER": 56.3339, "MEAN_ANOMALY": 304.0703, "EPHEMERIS_TYPE": 0, "CLASSIFICATION_TYPE": "U", "NORAD_CAT_ID": 41787, "ELEMENT_SET_NO": 999, "REV_AT_EPOCH": 49356, "BSTAR": 0.00010532, "MEAN_MOTION_DOT": 5.52e-06, "MEAN_MOTION_DDOT": 0}, "tle": {"line1": "1 41787U 16059E   25354.90592058  .00000552  00000+0  10532-3 0  9990", "line2": "2 41787  97.8136 357.3006 0029819  56.3339 304.0703 14.67334172493567"}}, "geometry": {"type": "Point", "coordinates": [-171.6298459051578, 52.7316204551176]}}, {"type": "Feature", "properties": {"norad_id": 41790, "name": "SCATSAT 1", "group": "resource", "lat": 49.231963126345754, "lon": -118.04602510935212, "alt_km": 593.810568584131, "timestamp": "2025-12-21T14:40:47.568191+00:00", "meta": {"OBJECT_NAME": "SCATSAT 1", "OBJECT_ID": "2016-059H", "EPOCH": "2025-12-21T02:43:55.700832", "MEAN_MOTION": 14.78961089, "ECCENTRICITY": 0.00564593, "INCLINATION": 98.1451, "RA_OF_ASC_NODE": 51.8883, "ARG_OF_PERICENTER": 101.6086, "MEAN_ANOMALY": 259.147, "EPHEMERIS_TYPE": 0, "CLASSIFICATION_TYPE": "U", "NORAD_CAT_ID": 41790, "ELEMENT_SET_NO": 999, "REV_AT_EPOCH": 7526, "BSTAR": 0.00013897435, "MEAN_MOTION_DOT": 9.97e-06, "MEAN_MOTION_DDOT": 0}, "tle": {"line1": "1 41790U 16059H   25355.11383913  .00000997  00000+0  13897-3 0  9996", "line2": "2 41790  98.1451  51.8883 0056459 101.6086 259.1470 14.78961089 75266"}}, "geometry": {"type": "Point", "coordinates": [-118.04602510935212, 49.231963126345754]}}, {"type": "Feature", "properties": {"norad_id": 41875, "name": "GOKTURK 1A", "group": "resource", "lat": 57.659801393612845, "lon": -125.212372221314, "alt_km": 677.7891851611193, "timestamp": "2025-12-21T14:40:47.568201+00:00", "meta": {"OBJECT_NAME": "GOKTURK 1A", "OBJECT_ID": "2016-073A", "EPOCH": "2025-12-21T06:12:16.571232", "MEAN_MOTION": 14.62788161, "ECCENTRICITY": 0.00012823, "INCLINATION": 98.1435, "RA_OF_ASC_NODE": 247.51, "ARG_OF_PERICENTER": 81.1262, "MEAN_ANOMALY": 279.0085, "EPHEMERIS_TYPE": 0, "CLASSIFICATION_TYPE": "U", "NORAD_CAT_ID": 41875, "ELEMENT_SET_NO": 999, "REV_AT_EPOCH": 48281, "BSTAR": 5.5973427e-05, "MEAN_MOTION_DOT": 2.39e-06, "MEAN_MOTION_DDOT": 0}, "tle": {"line1": "1 41875U 16073A   25355.25852513  .00000239  00000+0  55973-4 0  9999", "line2": "2 41875  98.1435 247.5100 0001282  81.1262 279.0085 14.62788161482817"}}, "geometry": {"type": "Point", "coordinates": [-125.212372221314, 57.659801393612845]}}, {"type": "Feature", "properties": {"norad_id": 41877, "name": "RESOURCESAT-2A", "group": "resource", "lat": -53.595309575219034, "lon": -126.67548530683504, "alt_km": 825.9365551053706, "timestamp": "2025-12-21T14:40:47.568211+00:00", "meta": {"OBJECT_NAME": "RESOURCESAT-2A", "OBJECT_ID": "2016-074A", "EPOCH": "2025-12-21T05:08:03.768000", "MEAN_MOTION": 14.21602054, "ECCENTRICITY": 0.00014324, "INCLINATION": 98.7753, "RA_OF_ASC_NODE": 65.0208, "ARG_OF_PERICENTER": 214.7204, "MEAN_ANOMALY": 145.388, "EPHEMERIS_TYPE": 0, "CLASSIFICATION_TYPE": "U", "NORAD_CAT_ID": 41877, "ELEMENT_SET_NO": 999, "REV_AT_EPOCH": 46901, "BSTAR": -5.6814738e-05, "MEAN_MOTION_DOT": -1.69e-06, "MEAN_MOTION_DDOT": 0}, "tle": {"line1": "1 41877U 16074A   25355.21393250 -.00000169  00000+0 -56815-4 0  9996", "line2": "2 41877  98.7753  65.0208 0001432 214.7204 145.3880 14.21602054469013"}}, "geometry": {"type": "Point", "coordinates": [-126.67548530683504, -53.595309575219034]}}, {"type": "Feature", "properties": {"norad_id": 41948, "name": "CARTOSAT-2D", "group": "resource", "lat": 63.115645425930644, "lon": -112.09290573374221, "alt_km": 498.2853713084405, "timestamp": "2025-12-21T14:40:47.568221+00:00", "meta": {"OBJECT_NAME": "CARTOSAT-2D", "OBJECT_ID": "2017-008A", "EPOCH": "2025-12-21T06:16:06.847104", "MEAN_MOTION": 15.1933257, "ECCENTRICITY": 0.00053204, "INCLINATION": 97.4378, "RA_OF_ASC_NODE": 52.6296, "ARG_OF_PERICENTER": 137.1209, "MEAN_ANOMALY": 223.0441, "EPHEMERIS_TYPE": 0, "CLASSIFICATION_TYPE": "U", "NORAD_CAT_ID": 41948, "ELEMENT_SET_NO": 999, "REV_AT_EPOCH": 49056, "BSTAR": 9.2937733e-05, "MEAN_MOTION_DOT": 1.896e-05, "MEAN_MOTION_DDOT": 0}, "tle": {"line1": "1 41948U 17008A   25355.26119036  .00001896  00000+0  92938-4 0  9998", "line2": "2 41948  97.4378  52.6296 0005320 137.1209 223.0441 15.19332570490565"}}, "geometry": {"type": "Point", "coordinates": [-112.09290573374221, 63.115645425930644]}}, {"type": "Feature", "properties": {"norad_id": 42063, "name": "SENTINEL-2B", "group": "resource", "lat": 42.5259999847914, "lon": -104.11551190033681, "alt_km": 784.8693965013781, "timestamp": "2025-12-21T14:40:47.568231+00:00", "meta": {"OBJECT_NAME": "SENTINEL-2B", "OBJECT_ID": "2017-013A", "EPOCH": "2025-12-21T07:19:46.161696", "MEAN_MOTION": 14.30814126, "ECCENTRICITY": 0.00012008, "INCLINATION": 98.5713, "RA_OF_ASC_NODE": 67.6315, "ARG_OF_PERICENTER": 93.4919, "MEAN_ANOMALY": 266.6401, "EPHEMERIS_TYPE": 0, "CLASSIFICATION_TYPE": "U", "NORAD_CAT_ID": 42063, "ELEMENT_SET_NO": 999, "REV_AT_EPOCH": 45920, "BSTAR": 8.2403906e-05, "MEAN_MOTION_DOT": 1.72e-06, "MEAN_MOTION_DDOT": 0}, "tle": {"line1": "1 42063U 17013A   25355.30539539  .00000172  00000+0  82404-4 0  9995", "line2": "2 42063  98.5713  67.6315 0001200  93.4919 266.6401 14.30814126459201"}}, "geometry": {"type": "Point", "coordinates": [-104.11551190033681, 42.5259999847914]}}, {"type": "Feature", "properties": {"norad_id": 42767, "name": "CARTOSAT-2E", "group": "resource", "lat": 24.457339944702248, "lon": 49.6686212928559, "alt_km": 509.2382560569713, "timestamp": "2025-12-21T14:40:47.568241+00:00", "meta": {"OBJECT_NAME": "CARTOSAT-2E", "OBJECT_ID": "2017-036C", "EPOCH": "2025-12-21T06:40:04.733184", "MEAN_MOTION": 15.19274114, "ECCENTRICITY": 0.0002614, "INCLINATION": 97.4549, "RA_OF_ASC_NODE": 52.7535, "ARG_OF_PERICENTER": 194.7641, "MEAN_ANOMALY": 165.3518, "EPHEMERIS_TYPE": 0, "CLASSIFICATION_TYPE": "U", "NORAD_CAT_ID": 42767, "ELEMENT_SET_NO": 999, "REV_AT_EPOCH": 47113, "BSTAR": 0.00011242108, "MEAN_MOTION_DOT": 2.303e-05, "MEAN_MOTION_DDOT": 0}, "tle": {"line1": "1 42767U 17036C   25355.27783256  .00002303  00000+0  11242-3 0  9993", "line2": "2 42767  97.4549  52.7535 0002614 194.7641 165.3518 15.19274114471138"}}, "geometry": {"type": "Point", "coordinates": [49.6686212928559, 24.457339944702248]}}, {"type": "Feature", "properties": {"norad_id": 42920, "name": "FORMOSAT-5", "group": "resource", "lat": 57.12734565761771, "lon": 56.787752840833974, "alt_km": 723.4851285433524, "timestamp": "2025-12-21T14:40:47.568251+00:00", "meta": {"OBJECT_NAME": "FORMOSAT-5", "OBJECT_ID": "2017-049A", "EPOCH": "2025-12-21T06:08:11.704992", "MEAN_MOTION": 14.50765144, "ECCENTRICITY": 0.00098277, "INCLINATION": 98.2443, "RA_OF_ASC_NODE": 69.4037, "ARG_OF_PERICENTER": 272.5252, "MEAN_ANOMALY": 87.4818, "EPHEMERIS_TYPE": 0, "CLASSIFICATION_TYPE": "U", "NORAD_CAT_ID": 42920, "ELEMENT_SET_NO": 999, "REV_AT_EPOCH": 44087, "BSTAR": 5.2378204e-05, "MEAN_MOTION_DOT": 1.62e-06, "MEAN_MOTION_DDOT": 0}, "tle": {"line1": "1 42920U 17049A   25355.25569103  .00000162  00000+0  52378-4 0  9996", "line2": "2 42920  98.2443  69.4037 0009827 272.5252  87.4818 14.50765144440875"}}, "geometry": {"type": "Point", "coordinates": [56.787752840833974, 57.12734565761771]}}, {"type": "Feature", "properties": {"norad_id": 42969, "name": "SENTINEL-5P", "group": "resource", "lat": 5.6226795225747255, "lon": 114.98926654578369, "alt_km": 829.056857423865, "timestamp": "2025-12-21T14:40:47.568262+00:00", "meta": {"OBJECT_NAME": "SENTINEL-5P", "OBJECT_ID": "2017-064A", "EPOCH": "2025-12-21T05:24:13.216608", "MEAN_MOTION": 14.19519434, "ECCENTRICITY": 0.00010178, "INCLINATION": 98.7798, "RA_OF_ASC_NODE": 293.7344, "ARG_OF_PERICENTER": 90.828, "MEAN_ANOMALY": 269.3012, "EPHEMERIS_TYPE": 0, "CLASSIFICATION_TYPE": "U", "NORAD_CAT_ID": 42969, "ELEMENT_SET_NO": 999, "REV_AT_EPOCH": 42431, "BSTAR": 4.7257332e-05, "MEAN_MOTION_DOT": 5.5e-07, "MEAN_MOTION_DDOT": 0}, "tle": {"line1": "1 42969U 17064A   25355.22515297  .00000055  00000+0  47257-4 0  9999", "line2": "2 42969  98.7798 293.7344 0001017  90.8280 269.3012 14.19519434424316"}}, "geometry": {"type": "Point", "coordinates": [114.98926654578369, 5.6226795225747255]}}]}